COMMENT,ORIGINATOR,NORAD_CAT_ID,OBJECT_NAME,OBJECT_TYPE,CLASSIFICATION_TYPE,INTLDES,EPOCH,EPOCH_MICROSECONDS,MEAN_MOTION,ECCENTRICITY,INCLINATION,RA_OF_ASC_NODE,ARG_OF_PERICENTER,MEAN_ANOMALY,EPHEMERIS_TYPE,ELEMENT_SET_NO,REV_AT_EPOCH,BSTAR,MEAN_MOTION_DOT,MEAN_MOTION_DDOT,FILE,TLE_LINE0,TLE_LINE1,TLE_LINE2,OBJECT_ID,OBJECT_NUMBER,SEMIMAJOR_AXIS,PERIOD,APOGEE,PERIGEE,DECAYED
GENERATED VIA SPACETRACK.ORG API,18 SPCS,51976,STARLINK-3663,PAYLOAD,U,22025W,2022-10-23 16:37:14,909952,15.08851914,0.0001713,53.2166,174.2726,53.2981,306.8168,0,999,3492,0.00021913,3.202e-05,0.0,3630604,0 STARLINK-3663,1 51976U 22025W   22296.69253368  .00003202  00000-0  21913-3 0  9998,2 51976  53.2166 174.2726 0001713  53.2981 306.8168 15.08851914 34924,2022-025W,51976,6917.844,95.437,540.894,538.524,0
GENERATED VIA SPACETRACK.ORG API,18 SPCS,51976,STARLINK-3663,PAYLOAD,U,22025W,2022-10-24 00:34:10,649568,15.08847609,0.0001726,53.2167,172.7859,52.9996,307.1154,0,999,3608,0.00012728,1.739e-05,0.0,3631286,0 STARLINK-3663,1 51976U 22025W   22297.02373437  .00001739  00000-0  12728-3 0  9993,2 51976  53.2167 172.7859 0001726  52.9996 307.1154 15.08847609 36085,2022-025W,51976,6917.857,95.437,540.916,538.528,0
GENERATED VIA SPACETRACK.ORG API,18 SPCS,51976,STARLINK-3663,PAYLOAD,U,22025W,2022-10-24 00:34:10,649568,15.08847609,0.0001726,53.2167,172.7859,52.9996,307.1154,0,999,3497,0.00012728,1.739e-05,0.0,3631438,0 STARLINK-3663,1 51976U 22025W   22297.02373437  .00001739  00000-0  12728-3 0  9993,2 51976  53.2167 172.7859 0001726  52.9996 307.1154 15.08847609 34971,2022-025W,51976,6917.857,95.437,540.916,538.528,0
GENERATED VIA SPACETRACK.ORG API,18 SPCS,51976,STARLINK-3663,PAYLOAD,U,22025W,2022-10-25 00:24:59,47776,15.08822723,0.000181,53.2168,168.326,54.4767,305.6394,0,999,3623,-0.00024278,-4.148e-05,0.0,3632454,0 STARLINK-3663,1 51976U 22025W   22298.01735009 -.00004148  00000-0 -24278-3 0  9992,2 51976  53.2168 168.3260 0001810  54.4767 305.6394 15.08822723 36236,2022-025W,51976,6917.933,95.439,541.05,538.546,0
GENERATED VIA SPACETRACK.ORG API,18 SPCS,51976,STARLINK-3663,PAYLOAD,U,22025W,2022-10-25 08:21:55,630656,15.08822841,0.0001709,53.2169,166.84,56.4706,303.6449,0,999,3517,-8.3142e-05,-1.61e-05,0.0,3633075,0 STARLINK-3663,1 51976U 22025W   22298.34856054 -.00001610  00000-0 -83142-4 0  9999,2 51976  53.2169 166.8400 0001709  56.4706 303.6449 15.08822841 35170,2022-025W,51976,6917.933,95.439,540.98,538.616,0
GENERATED VIA SPACETRACK.ORG API,18 SPCS,51976,STARLINK-3663,PAYLOAD,U,22025W,2022-10-25 19:29:37,486752,15.08827758,0.0001782,53.2172,164.7583,55.0649,305.051,0,999,3524,-5.2466e-05,-1.123e-05,0.0,3633327,0 STARLINK-3663,1 51976U 22025W   22298.81223943 -.00001123  00000-0 -52466-4 0  9990,2 51976  53.2172 164.7583 0001782  55.0649 305.0510 15.08827758 35240,2022-025W,51976,6917.918,95.438,541.016,538.55,0
GENERATED VIA SPACETRACK.ORG API,18 SPCS,51976,STARLINK-3663,PAYLOAD,U,22025W,2022-10-25 22:40:23,808000,15.08828173,0.0001776,53.2171,164.1637,56.1481,303.968,0,999,3637,-4.8838e-05,-1.065e-05,0.0,3633742,0 STARLINK-3663,1 51976U 22025W   22298.94472000 -.00001065  00000-0 -48838-4 0  9997,2 51976  53.2171 164.1637 0001776  56.1481 303.9680 15.08828173 36374,2022-025W,51976,6917.917,95.438,541.01,538.553,0
GENERATED VIA SPACETRACK.ORG API,18 SPCS,51976,STARLINK-3663,PAYLOAD,U,22025W,2022-10-26 08:12:42,666336,15.08828545,0.0001809,53.2171,162.379,55.1244,304.9918,0,999,3532,3.2767e-05,2.33e-06,0.0,3634846,0 STARLINK-3663,1 51976U 22025W   22299.34216049  .00000233  00000-0  32767-4 0  9999,2 51976  53.2171 162.3790 0001809  55.1244 304.9918 15.08828545 35329,2022-025W,51976,6917.915,95.438,541.032,538.529,0
GENERATED VIA SPACETRACK.ORG API,18 SPCS,51976,STARLINK-3663,PAYLOAD,U,22025W,2022-10-26 20:55:47,860608,15.08827055,0.0001855,53.2171,159.9996,56.6665,303.4505,0,999,3540,0.00017487,2.495e-05,0.0,3635100,0 STARLINK-3663,1 51976U 22025W   22299.87208172  .00002495  00000-0  17487-3 0  9998,2 51976  53.2171 159.9996 0001855  56.6665 303.4505 15.08827055 35403,2022-025W,51976,6917.92,95.438,541.068,538.502,0
GENERATED VIA SPACETRACK.ORG API,18 SPCS,51976,STARLINK-3663,PAYLOAD,U,22025W,2022-10-27 08:03:29,570688,15.08835708,0.0001893,53.2171,157.918,57.1933,302.9242,0,999,3658,0.00021546,3.142e-05,0.0,3635726,0 STARLINK-3663,1 51976U 22025W   22300.33575892  .00003142  00000-0  21546-3 0  9999,2 51976  53.2171 157.9180 0001893  57.1933 302.9242 15.08835708 36588,2022-025W,51976,6917.894,95.438,541.068,538.449,0
GENERATED VIA SPACETRACK.ORG API,18 SPCS,51976,STARLINK-3663,PAYLOAD,U,22025W,2022-10-27 08:03:29,570688,15.08835708,0.0001893,53.2171,157.918,57.1933,302.9242,0,999,3547,0.00021546,3.142e-05,0.0,3635758,0 STARLINK-3663,1 51976U 22025W   22300.33575892  .00003142  00000-0  21546-3 0  9999,2 51976  53.2171 157.9180 0001893  57.1933 302.9242 15.08835708 35475,2022-025W,51976,6917.894,95.438,541.068,538.449,0
GENERATED VIA SPACETRACK.ORG API,18 SPCS,51976,STARLINK-3663,PAYLOAD,U,22025W,2022-10-27 20:46:34,119552,15.08846271,0.0001908,53.2171,155.5391,57.7341,302.3836,0,999,3555,0.0002258,3.308e-05,0.0,3636022,0 STARLINK-3663,1 51976U 22025W   22300.86567268  .00003308  00000-0  22580-3 0  9998,2 51976  53.2171 155.5391 0001908  57.7341 302.3836 15.08846271 35558,2022-025W,51976,6917.861,95.437,541.046,538.406,0
GENERATED VIA SPACETRACK.ORG API,18 SPCS,51976,STARLINK-3663,PAYLOAD,U,22025W,2022-10-27 22:21:57,125088,15.08848898,0.0001923,53.2171,155.2418,57.7199,302.3979,0,999,3667,0.00022864,3.353e-05,0.0,3636010,0 STARLINK-3663,1 51976U 22025W   22300.93191117  .00003353  00000-0  22864-3 0  9997,2 51976  53.2171 155.2418 0001923  57.7199 302.3979 15.08848898 36672,2022-025W,51976,6917.853,95.437,541.048,538.388,0
GENERATED VIA SPACETRACK.ORG API,18 SPCS,51976,STARLINK-3663,PAYLOAD,U,22025W,2022-10-28 07:54:15,275808,15.0885739,0.0001936,53.2171,153.4576,58.221,301.897,0,999,3562,0.00025155,3.719e-05,0.0,3636776,0 STARLINK-3663,1 51976U 22025W   22301.32934347  .00003719  00000-0  25155-3 0  9993,2 51976  53.2171 153.4576 0001936  58.2210 301.8970 15.08857390 35627,2022-025W,51976,6917.827,95.436,541.032,538.353,0
GENERATED VIA SPACETRACK.ORG API,18 SPCS,51976,STARLINK-3663,PAYLOAD,U,22025W,2022-10-28 19:01:57,764352,15.08848965,0.000196,53.2171,151.3763,59.7904,300.3282,0,999,3569,0.00011401,1.527e-05,0.0,3637111,0 STARLINK-3663,1 51976U 22025W   22301.79302968  .00001527  00000-0  11401-3 0  9996,2 51976  53.2171 151.3763 0001960  59.7904 300.3282 15.08848965 35690,2022-025W,51976,6917.853,95.437,541.074,538.362,0
GENERATED VIA SPACETRACK.ORG API,18 SPCS,51976,STARLINK-3663,PAYLOAD,U,22025W,2022-10-28 20:37:21,62784,15.08846503,0.0001945,53.2171,151.0791,59.2045,300.9139,0,999,3681,7.123e-05,8.46e-06,0.0,3637089,0 STARLINK-3663,1 51976U 22025W   22301.85927156  .00000846  00000-0  71230-4 0  9995,2 51976  53.2171 151.0791 0001945  59.2045 300.9139 15.08846503 36810,2022-025W,51976,6917.861,95.437,541.071,538.38,0
GENERATED VIA SPACETRACK.ORG API,18 SPCS,51976,STARLINK-3663,PAYLOAD,U,22025W,2022-10-29 20:28:08,15520,15.08846767,0.0001851,53.2188,146.6183,61.0595,299.0583,0,999,3585,-6.7661e-05,-1.365e-05,0.0,3637863,0 STARLINK-3663,1 51976U 22025W   22302.85287055 -.00001365  00000-0 -67661-4 0  9995,2 51976  53.2188 146.6183 0001851  61.0595 299.0583 15.08846767 35856,2022-025W,51976,6917.86,95.437,541.005,538.444,0
GENERATED VIA SPACETRACK.ORG API,18 SPCS,51976,STARLINK-3663,PAYLOAD,U,22025W,2022-10-29 23:38:54,471552,15.08840287,0.0001797,53.2186,146.0238,60.5457,299.5715,0,999,3698,-3.9321e-05,-9.14e-06,0.0,3637854,0 STARLINK-3663,1 51976U 22025W   22302.98535268 -.00000914  00000-0 -39321-4 0  9992,2 51976  53.2186 146.0238 0001797  60.5457 299.5715 15.08840287 36987,2022-025W,51976,6917.88,95.438,540.988,538.501,0
GENERATED VIA SPACETRACK.ORG API,18 SPCS,51976,STARLINK-3663,PAYLOAD,U,22025W,2022-10-29 23:38:54,471552,15.08840287,0.0001797,53.2186,146.0238,60.5457,299.5715,0,999,3587,-3.9321e-05,-9.14e-06,0.0,3637867,0 STARLINK-3663,1 51976U 22025W   22302.98535268 -.00000914  00000-0 -39321-4 0  9992,2 51976  53.2186 146.0238 0001797  60.5457 299.5715 15.08840287 35874,2022-025W,51976,6917.88,95.438,540.988,538.501,0
GENERATED VIA SPACETRACK.ORG API,18 SPCS,51976,STARLINK-3663,PAYLOAD,U,22025W,2022-10-30 20:18:54,435168,15.08856618,0.0001895,53.219,142.1575,56.9337,303.1837,0,999,3600,-0.00023192,-3.979e-05,0.0,3637924,0 STARLINK-3663,1 51976U 22025W   22303.84646337 -.00003979  00000-0 -23192-3 0  9990,2 51976  53.2190 142.1575 0001895  56.9337 303.1837 15.08856618 36003,2022-025W,51976,6917.83,95.437,541.006,538.384,0
GENERATED VIA SPACETRACK.ORG API,18 SPCS,51976,STARLINK-3663,PAYLOAD,U,22025W,2022-10-31 12:12:46,972800,15.08831756,0.0001612,53.2167,139.1834,50.4457,309.6678,0,999,3610,2.1665e-05,5.7e-07,0.0,3638016,0 STARLINK-3663,1 51976U 22025W   22304.50887700  .00000057  00000-0  21665-4 0  9991,2 51976  53.2167 139.1834 0001612  50.4457 309.6678 15.08831756 36101,2022-025W,51976,6917.906,95.438,540.886,538.655,0
GENERATED VIA SPACETRACK.ORG API,18 SPCS,51976,STARLINK-3663,PAYLOAD,U,22025W,2022-10-31 12:12:46,972800,15.08831756,0.0001612,53.2167,139.1834,50.4457,309.6678,0,999,3721,2.1665e-05,5.7e-07,0.0,3639277,0 STARLINK-3663,1 51976U 22025W   22304.50887700  .00000057  00000-0  21665-4 0  9991,2 51976  53.2167 139.1834 0001612  50.4457 309.6678 15.08831756 37214,2022-025W,51976,6917.906,95.438,540.886,538.655,0
GENERATED VIA SPACETRACK.ORG API,18 SPCS,51976,STARLINK-3663,PAYLOAD,U,22025W,2022-11-01 12:03:33,728544,15.08838203,0.0001674,53.2167,134.7232,54.6256,305.4893,0,999,3736,5.9268e-05,6.55e-06,0.0,3640154,0 STARLINK-3663,1 51976U 22025W   22305.50247371  .00000655  00000-0  59268-4 0  9990,2 51976  53.2167 134.7232 0001674  54.6256 305.4893 15.08838203 37361,2022-025W,51976,6917.886,95.438,540.909,538.593,0
